NORAD_CAT_ID,OBJECT_NAME,OBJECT_TYPE,EPOCH,MEAN_MOTION,ECCENTRICITY,INCLINATION,RA_OF_ASC_NODE,ARG_OF_PERICENTER,MEAN_ANOMALY,BSTAR,MEAN_MOTION_DOT,MEAN_MOTION_DDOT,TLE_LINE0,TLE_LINE1,TLE_LINE2,SEMIMAJOR_AXIS,PERIOD,APOGEE,PERIGEE,DECAYED
54794.0,STARLINK-5392,PAYLOAD,2023-04-04 11:10:32,15.14839179,0.0005502,53.214,166.9929,4.1997,355.9043,0.0024368,0.00045826,0.0,0 STARLINK-5392,1 54794U 22175AN  23094.46565108  .00045826  00000-0  24368-2 0  9999,2 54794  53.2140 166.9929 0005502   4.1997 355.9043 15.14839179 18376,6899.604,95.06,525.265,517.673,0.0
54794.0,STARLINK-5392,PAYLOAD,2023-04-05 04:35:36,15.14879535,0.0005784,53.2139,163.7051,6.789,353.3182,0.0018835,0.00035341,0.0,0 STARLINK-5392,1 54794U 22175AN  23095.19139717  .00035341  00000-0  18835-2 0  9996,2 54794  53.2139 163.7051 0005784   6.7890 353.3182 15.14879535 16326,6899.481,95.057,525.337,517.356,0.0
54794.0,STARLINK-5392,PAYLOAD,2023-04-05 10:55:37,15.14897996,0.0005839,53.2141,162.5093,7.7569,352.3515,0.0019871,0.00037332,0.0,0 STARLINK-5392,1 54794U 22175AN  23095.45529862  .00037332  00000-0  19871-2 0  9992,2 54794  53.2141 162.5093 0005839   7.7569 352.3515 15.14897996 18521,6899.425,95.056,525.319,517.262,0.0
54794.0,STARLINK-5392,PAYLOAD,2023-04-06 10:40:39,15.14965124,0.0006161,53.2143,158.0253,11.1124,349.0006,0.0016751,0.00031458,0.0,0 STARLINK-5392,1 54794U 22175AN  23096.44489954  .00031458  00000-0  16751-2 0  9996,2 54794  53.2143 158.0253 0006161  11.1124 349.0006 15.14965124 16510,6899.221,95.052,525.337,516.836,0.0
54794.0,STARLINK-5392,PAYLOAD,2023-04-07 10:25:37,15.15032293,0.0006197,53.2145,153.5397,14.5185,345.5987,0.0017756,0.00033437,0.0,0 STARLINK-5392,1 54794U 22175AN  23097.43445621  .00033437  00000-0  17756-2 0  9994,2 54794  53.2145 153.5397 0006197  14.5185 345.5987 15.15032293 18822,6899.018,95.047,525.158,516.607,0.0
54794.0,STARLINK-5392,PAYLOAD,2023-04-08 03:50:33,15.15071339,0.0006301,53.2145,150.2509,16.7963,343.3239,0.0014057,0.00026411,0.0,0 STARLINK-5392,1 54794U 22175AN  23098.16010645  .00026411  00000-0  14057-2 0  9994,2 54794  53.2145 150.2509 0006301  16.7963 343.3239 15.15071339 16778,6898.899,95.045,525.111,516.417,0.0
54794.0,STARLINK-5392,PAYLOAD,2023-04-08 13:20:30,15.15092132,0.0006361,53.2144,148.4567,17.4718,342.6494,0.0014145,0.00026595,0.0,0 STARLINK-5392,1 54794U 22175AN  23098.55590758  .00026595  00000-0  14145-2 0  9996,2 54794  53.2144 148.4567 0006361  17.4718 342.6494 15.15092132 18997,6898.836,95.044,525.089,516.313,0.0
54794.0,STARLINK-5392,PAYLOAD,2023-04-09 08:20:23,15.15132147,0.0006388,53.2143,144.8681,19.7707,340.3534,0.0013197,0.00024814,0.0,0 STARLINK-5392,1 54794U 22175AN  23099.34749387  .00024814  00000-0  13197-2 0  9996,2 54794  53.2143 144.8681 0006388  19.7707 340.3534 15.15132147 16950,6898.714,95.041,524.986,516.173,0.0
54794.0,STARLINK-5392,PAYLOAD,2023-04-09 13:05:21,15.15138628,0.0006421,53.2143,143.9711,20.2182,339.9066,0.0011405,0.00021396,0.0,0 STARLINK-5392,1 54794U 22175AN  23099.54538764  .00021396  00000-0  11405-2 0  9995,2 54794  53.2143 143.9711 0006421  20.2182 339.9066 15.15138628 19144,6898.695,95.041,524.989,516.13,0.0
54794.0,STARLINK-5392,PAYLOAD,2023-04-09 19:25:18,15.15151611,0.0006401,53.2143,142.7746,20.9953,339.1303,0.0011728,0.00022021,0.0,0 STARLINK-5392,1 54794U 22175AN  23099.80924390  .00022021  00000-0  11728-2 0  9992,2 54794  53.2143 142.7746 0006401  20.9953 339.1303 15.15151611 19187,6898.655,95.04,524.936,516.104,0.0
54794.0,STARLINK-5392,PAYLOAD,2023-04-10 12:50:10,15.15188204,0.0006458,53.2143,139.4855,23.0108,337.1175,0.0014465,0.00027281,0.0,0 STARLINK-5392,1 54794U 22175AN  23100.53483806  .00027281  00000-0  14465-2 0  9991,2 54794  53.2143 139.4855 0006458  23.0108 337.1175 15.15188204 17135,6898.544,95.038,524.864,515.954,0.0
54794.0,STARLINK-5392,PAYLOAD,2023-04-10 14:25:09,15.15191021,0.0006458,53.2142,139.1863,23.1668,336.9617,0.0014,0.00026393,0.0,0 STARLINK-5392,1 54794U 22175AN  23100.60080029  .00026393  00000-0  14000-2 0  9997,2 54794  53.2142 139.1863 0006458  23.1668 336.9617 15.15191021 19302,6898.536,95.038,524.856,515.946,0.0
54794.0,STARLINK-5392,PAYLOAD,2023-04-10 19:10:06,15.15199804,0.0006427,53.2143,138.289,23.7829,336.3462,0.0012679,0.00023871,0.0,0 STARLINK-5392,1 54794U 22175AN  23100.79868582  .00023871  00000-0  12679-2 0  9993,2 54794  53.2143 138.2890 0006427  23.7829 336.3462 15.15199804 19336,6898.509,95.037,524.808,515.94,0.0
54794.0,STARLINK-5392,PAYLOAD,2023-04-11 12:34:55,15.15231487,0.0006535,53.2144,135.0,25.6471,334.4846,0.0011658,0.00021938,0.0,0 STARLINK-5392,1 54794U 22175AN  23101.52425766  .00021938  00000-0  11658-2 0  9996,2 54794  53.2144 135.0000 0006535  25.6471 334.4846 15.15231487 19440,6898.413,95.035,524.786,515.77,0.0
54794.0,STARLINK-5392,PAYLOAD,2023-04-11 14:09:54,15.1523468,0.0006534,53.2143,134.7009,25.8375,334.2945,0.0011604,0.00021837,0.0,0 STARLINK-5392,1 54794U 22175AN  23101.59021789  .00021837  00000-0  11604-2 0  9999,2 54794  53.2143 134.7009 0006534  25.8375 334.2945 15.15234680 19455,6898.403,95.035,524.776,515.761,0.0
54794.0,STARLINK-5392,PAYLOAD,2023-04-12 12:19:39,15.15268144,0.000657,53.2143,130.5143,28.5186,331.6167,0.00094914,0.00017812,0.0,0 STARLINK-5392,1 54794U 22175AN  23102.51365063  .00017812  00000-0  94914-3 0  9992,2 54794  53.2143 130.5143 0006570  28.5186 331.6167 15.15268144 19592,6898.302,95.033,524.699,515.634,0.0
54794.0,STARLINK-5392,PAYLOAD,2023-04-13 10:29:22,15.15302654,0.0006599,53.214,126.3275,31.3683,328.7705,0.00097977,0.00018416,0.0,0 STARLINK-5392,1 54794U 22175AN  23103.43706246  .00018416  00000-0  97977-3 0  9999,2 54794  53.2140 126.3275 0006599  31.3683 328.7705 15.15302654 19739,6898.197,95.031,524.614,515.51,0.0
54794.0,STARLINK-5392,PAYLOAD,2023-04-14 02:19:08,15.15327543,0.000661,53.2139,123.336,33.4311,326.71,0.00097835,0.00018402,0.0,0 STARLINK-5392,1 54794U 22175AN  23104.09662951  .00018402  00000-0  97835-3 0  9994,2 54794  53.2139 123.3360 0006610  33.4311 326.7100 15.15327543 17676,6898.121,95.029,524.546,515.427,0.0
54794.0,STARLINK-5392,PAYLOAD,2023-04-14 10:14:01,15.15341007,0.0006619,53.2139,121.8407,34.3522,325.7899,0.0010196,0.00019201,0.0,0 STARLINK-5392,1 54794U 22175AN  23104.42640880  .00019201  00000-0  10196-2 0  9990,2 54794  53.2139 121.8407 0006619  34.3522 325.7899 15.15341007 19884,6898.08,95.028,524.511,515.38,0.0
54794.0,STARLINK-5392,PAYLOAD,2023-04-15 05:13:43,15.15374495,0.0006702,53.2133,118.2515,36.7576,323.3878,0.0011259,0.00021262,0.0,0 STARLINK-5392,1 54794U 22175AN  23105.21786725  .00021262  00000-0  11259-2 0  9998,2 54794  53.2133 118.2515 0006702  36.7576 323.3878 15.15374495 17848,6897.979,95.026,524.467,515.221,0.0
54794.0,STARLINK-5392,PAYLOAD,2023-04-15 09:58:39,15.15381622,0.0006708,53.2135,117.3539,37.194,322.9518,0.0010659,0.00020113,0.0,0 STARLINK-5392,1 54794U 22175AN  23105.41572924  .00020113  00000-0  10659-2 0  9991,2 54794  53.2135 117.3539 0006708  37.1940 322.9518 15.15381622 20033,6897.957,95.026,524.449,515.195,0.0
54794.0,STARLINK-5392,PAYLOAD,2023-04-15 17:53:30,15.15397235,0.0006684,53.2133,115.8584,38.3465,321.8004,0.0011488,0.00021716,0.0,0 STARLINK-5392,1 54794U 22175AN  23105.74549632  .00021716  00000-0  11488-2 0  9998,2 54794  53.2133 115.8584 0006684  38.3465 321.8004 15.15397235 20082,6897.91,95.025,524.385,515.164,0.0
54794.0,STARLINK-5392,PAYLOAD,2023-04-16 09:43:13,15.15424356,0.0006762,53.213,112.8677,40.1362,320.0132,0.0010964,0.00020725,0.0,0 STARLINK-5392,1 54794U 22175AN  23106.40502174  .00020725  00000-0  10964-2 0  9999,2 54794  53.2130 112.8677 0006762  40.1362 320.0132 15.15424356 18022,6897.828,95.023,524.357,515.028,0.0
54794.0,STARLINK-5392,PAYLOAD,2023-04-16 17:38:04,15.15439746,0.0006765,53.213,111.372,41.1754,318.975,0.0011552,0.00021866,0.0,0 STARLINK-5392,1 54794U 22175AN  23106.73477968  .00021866  00000-0  11552-2 0  9998,2 54794  53.2130 111.3720 0006765  41.1754 318.9750 15.15439746 20231,6897.781,95.022,524.312,514.98,0.0
54794.0,STARLINK-5392,PAYLOAD,2023-04-17 06:17:50,15.15462827,0.0006836,53.2131,108.9792,42.6495,317.5029,0.0011728,0.0002222,0.0,0 STARLINK-5392,1 54794U 22175AN  23107.26238589  .00022220  00000-0  11728-2 0  9991,2 54794  53.2131 108.9792 0006836  42.6495 317.5029 15.15462827 20319,6897.711,95.02,524.291,514.861,0.0
54794.0,STARLINK-5392,PAYLOAD,2023-04-17 17:22:36,15.15483207,0.0006857,53.2131,106.8849,43.8437,316.3101,0.0011915,0.00022594,0.0,0 STARLINK-5392,1 54794U 22175AN  23107.72403481  .00022594  00000-0  11915-2 0  9999,2 54794  53.2131 106.8849 0006857  43.8437 316.3101 15.15483207 18221,6897.649,95.019,524.244,514.784,0.0
54794.0,STARLINK-5392,PAYLOAD,2023-04-18 09:12:16,15.15512386,0.0006919,53.2132,103.8936,45.5631,314.593,0.0011673,0.00022146,0.0,0 STARLINK-5392,1 54794U 22175AN  23108.38352213  .00022146  00000-0  11673-2 0  9992,2 54794  53.2132 103.8936 0006919  45.5631 314.5930 15.15512386 20482,6897.56,95.017,524.198,514.653,0.0
54794.0,STARLINK-5392,PAYLOAD,2023-04-18 17:07:05,15.15528298,0.0006928,53.2134,102.3976,46.5334,313.6236,0.0011949,0.00022689,0.0,0 STARLINK-5392,1 54794U 22175AN  23108.71326075  .00022689  00000-0  11949-2 0  9994,2 54794  53.2134 102.3976 0006928  46.5334 313.6236 15.15528298 20537,6897.512,95.016,524.156,514.599,0.0
54794.0,STARLINK-5392,PAYLOAD,2023-04-18 23:26:57,15.15543373,0.0006939,53.2135,101.2009,47.4687,312.6892,0.0013316,0.0002534,0.0,0 STARLINK-5392,1 54794U 22175AN  23108.97704909  .00025340  00000-0  13316-2 0  9995,2 54794  53.2135 101.2009 0006939  47.4687 312.6892 15.15543373 18418,6897.466,95.015,524.118,514.545,0.0
54794.0,STARLINK-5392,PAYLOAD,2023-04-19 08:56:43,15.15563422,0.0006973,53.2136,99.4063,48.3436,311.8155,0.0014292,0.00027243,0.0,0 STARLINK-5392,1 54794U 22175AN  23109.37272748  .00027243  00000-0  14292-2 0  9999,2 54794  53.2136  99.4063 0006973  48.3436 311.8155 15.15563422 20634,6897.406,95.014,524.08,514.461,0.0
